ONEWEB-0101             
1 48049U 21025H   25276.27270440  .00000157  00000+0  39573-3 0  9995
2 48049  87.9049  11.2829 0001860 105.3777 254.7558 13.13469374219775
ONEWEB-0113             
1 48050U 21025J   25276.24030300  .00000105  00000+0  25194-3 0  9990
2 48050  87.9049  11.2270 0001719  93.3258 266.8068 13.13979313219869
ONEWEB-0112             
1 48051U 21025K   25276.23884988  .00000116  00000+0  28166-3 0  9993
2 48051  87.9049  11.2481 0001906  99.2334 260.9011 13.13470182219865
ONEWEB-0156             
1 48052U 21025L   25276.24731066  .00000261  00000+0  67947-3 0  9994
2 48052  87.9050  11.2584 0002008 100.0759 260.0597 13.13469327219845
ONEWEB-0161             
1 48053U 21025M   25276.29808334 -.00000312  00000+0 -88815-3 0  9999
2 48053  87.9051  11.2675 0002057 101.1355 259.0005 13.13468970219784
ONEWEB-0158             
1 48054U 21025N   25276.25746481  .00000436  00000+0  11597-2 0  9997
2 48054  87.9054  11.2558 0001549 104.8627 255.2674 13.13469519219909
ONEWEB-0157             
1 48055U 21025P   25276.28285163 -.00000131  00000+0 -39307-3 0  9990
2 48055  87.9054  11.2583 0002227 104.9280 255.2096 13.13468160219840
ONEWEB-0162             
1 48056U 21025Q   25276.25902824  .00000388  00000+0  10287-2 0  9995
2 48056  87.9055  11.2632 0001897 100.5247 259.6096 13.13469584219810
ONEWEB-0155             
1 48057U 21025R   25276.18975041  .00000287  00000+0  75096-3 0  9997
2 48057  87.9052  11.2835 0001893 107.0271 253.1066 13.13468361219940
ONEWEB-0149             
1 48058U 21025S   25276.28792542 -.00000238  00000+0 -68693-3 0  9995
2 48058  87.9049  11.2577 0001913  94.8116 265.3231 13.13468399219764
ONEWEB-0148             
1 48059U 21025T   25276.25069238  .00000367  00000+0  96968-3 0  9999
2 48059  87.9045  11.2895 0002350  89.8573 270.2825 13.13470335219881
ONEWEB-0160             
1 48060U 21025U   25276.26761683  .00000287  00000+0  75137-3 0  9991
2 48060  87.9048  11.2834 0001059  92.1805 267.9446 13.13468967219834
ONEWEB-0163             
1 48061U 21025V   25276.25238291  .00000417  00000+0  11067-2 0  9991
2 48061  87.9049  11.2677 0002174 104.4394 255.6977 13.13469710219953
ONEWEB-0159             
1 48062U 21025W   25276.24392843 -.00000643  00000+0 -17943-2 0  9997
2 48062  87.9047  11.2521 0002049 100.4675 259.6685 13.13474187219874
ONEWEB-0164             
1 48063U 21025X   25276.30147414 -.00000188  00000+0 -55020-3 0  9990
2 48063  87.9046  11.2489 0001745 101.8421 258.2904 13.13469281219860
ONEWEB-0167             
1 48064U 21025Y   25276.25323621  .00000358  00000+0  94564-3 0  9994
2 48064  87.9042  11.2916 0002183 121.1410 238.9934 13.13470253219849
ONEWEB-0166             
1 48065U 21025Z   25276.27609062  .00000035  00000+0  60196-4 0  9990
2 48065  87.9052  11.2382 0001976  97.1359 262.9995 13.13470744219929
