[{"OBJECT_NAME":"ONEWEB-0101","OBJECT_ID":"2021-025H","EPOCH":"2025-10-03T06:32:41.660160","MEAN_MOTION":13.13469374,"ECCENTRICITY":0.00018608,"INCLINATION":87.9049,"RA_OF_ASC_NODE":11.2829,"ARG_OF_PERICENTER":105.3777,"MEAN_ANOMALY":254.7558,"EPHEMERIS_TYPE":0,"CLASSIFICATION_TYPE":"U","NORAD_CAT_ID":48049,"ELEMENT_SET_NO":999,"REV_AT_EPOCH":21977,"BSTAR":0.00039573297,"MEAN_MOTION_DOT":1.57e-6,"MEAN_MOTION_DDOT":0},{"OBJECT_NAME":"ONEWEB-0113","OBJECT_ID":"2021-025J","EPOCH":"2025-10-03T05:46:02.179200","MEAN_MOTION":13.13979313,"ECCENTRICITY":0.00017194,"INCLINATION":87.9049,"RA_OF_ASC_NODE":11.227,"ARG_OF_PERICENTER":93.3258,"MEAN_ANOMALY":266.8068,"EPHEMERIS_TYPE":0,"CLASSIFICATION_TYPE":"U","NORAD_CAT_ID":48050,"ELEMENT_SET_NO":999,"REV_AT_EPOCH":21986,"BSTAR":0.00025193582,"MEAN_MOTION_DOT":1.05e-6,"MEAN_MOTION_DDOT":0},{"OBJECT_NAME":"ONEWEB-0112","OBJECT_ID":"2021-025K","EPOCH":"2025-10-03T05:43:56.629632","MEAN_MOTION":13.13470182,"ECCENTRICITY":0.0001906,"INCLINATION":87.9049,"RA_OF_ASC_NODE":11.2481,"ARG_OF_PERICENTER":99.2334,"MEAN_ANOMALY":260.9011,"EPHEMERIS_TYPE":0,"CLASSIFICATION_TYPE":"U","NORAD_CAT_ID":48051,"ELEMENT_SET_NO":999,"REV_AT_EPOCH":21986,"BSTAR":0.00028165938,"MEAN_MOTION_DOT":1.16e-6,"MEAN_MOTION_DDOT":0},{"OBJECT_NAME":"ONEWEB-0156","OBJECT_ID":"2021-025L","EPOCH":"2025-10-03T05:56:07.641024","MEAN_MOTION":13.13469327,"ECCENTRICITY":0.0002008,"INCLINATION":87.905,"RA_OF_ASC_NODE":11.2584,"ARG_OF_PERICENTER":100.0759,"MEAN_ANOMALY":260.0597,"EPHEMERIS_TYPE":0,"CLASSIFICATION_TYPE":"U","NORAD_CAT_ID":48052,"ELEMENT_SET_NO":999,"REV_AT_EPOCH":21984,"BSTAR":0.00067947083,"MEAN_MOTION_DOT":2.61e-6,"MEAN_MOTION_DDOT":0},{"OBJECT_NAME":"ONEWEB-0161","OBJECT_ID":"2021-025M","EPOCH":"2025-10-03T07:09:14.400576","MEAN_MOTION":13.1346897,"ECCENTRICITY":0.00020572,"INCLINATION":87.9051,"RA_OF_ASC_NODE":11.2675,"ARG_OF_PERICENTER":101.1355,"MEAN_ANOMALY":259.0005,"EPHEMERIS_TYPE":0,"CLASSIFICATION_TYPE":"U","NORAD_CAT_ID":48053,"ELEMENT_SET_NO":999,"REV_AT_EPOCH":21978,"BSTAR":-0.0008881536,"MEAN_MOTION_DOT":-3.12e-6,"MEAN_MOTION_DDOT":0},{"OBJECT_NAME":"ONEWEB-0158","OBJECT_ID":"2021-025N","EPOCH":"2025-10-03T06:10:44.959584","MEAN_MOTION":13.13469519,"ECCENTRICITY":0.00015494,"INCLINATION":87.9054,"RA_OF_ASC_NODE":11.2558,"ARG_OF_PERICENTER":104.8627,"MEAN_ANOMALY":255.2674,"EPHEMERIS_TYPE":0,"CLASSIFICATION_TYPE":"U","NORAD_CAT_ID":48054,"ELEMENT_SET_NO":999,"REV_AT_EPOCH":21990,"BSTAR":0.0011597112,"MEAN_MOTION_DOT":4.36e-6,"MEAN_MOTION_DDOT":0},{"OBJECT_NAME":"ONEWEB-0157","OBJECT_ID":"2021-025P","EPOCH":"2025-10-03T06:47:18.380832","MEAN_MOTION":13.1346816,"ECCENTRICITY":0.00022278,"INCLINATION":87.9054,"RA_OF_ASC_NODE":11.2583,"ARG_OF_PERICENTER":104.928,"MEAN_ANOMALY":255.2096,"EPHEMERIS_TYPE":0,"CLASSIFICATION_TYPE":"U","NORAD_CAT_ID":48055,"ELEMENT_SET_NO":999,"REV_AT_EPOCH":21984,"BSTAR":-0.00039307363,"MEAN_MOTION_DOT":-1.31e-6,"MEAN_MOTION_DDOT":0},{"OBJECT_NAME":"ONEWEB-0162","OBJECT_ID":"2021-025Q","EPOCH":"2025-10-03T06:13:00.039936","MEAN_MOTION":13.13469584,"ECCENTRICITY":0.0001897,"INCLINATION":87.9055,"RA_OF_ASC_NODE":11.2632,"ARG_OF_PERICENTER":100.5247,"MEAN_ANOMALY":259.6096,"EPHEMERIS_TYPE":0,"CLASSIFICATION_TYPE":"U","NORAD_CAT_ID":48056,"ELEMENT_SET_NO":999,"REV_AT_EPOCH":21981,"BSTAR":0.0010286599,"MEAN_MOTION_DOT":3.88e-6,"MEAN_MOTION_DDOT":0},{"OBJECT_NAME":"ONEWEB-0155","OBJECT_ID":"2021-025R","EPOCH":"2025-10-03T04:33:14.435424","MEAN_MOTION":13.13468361,"ECCENTRICITY":0.00018935,"INCLINATION":87.9052,"RA_OF_ASC_NODE":11.2835,"ARG_OF_PERICENTER":107.0271,"MEAN_ANOMALY":253.1066,"EPHEMERIS_TYPE":0,"CLASSIFICATION_TYPE":"U","NORAD_CAT_ID":48057,"ELEMENT_SET_NO":999,"REV_AT_EPOCH":21994,"BSTAR":0.00075095714,"MEAN_MOTION_DOT":2.87e-6,"MEAN_MOTION_DDOT":0},{"OBJECT_NAME":"ONEWEB-0149","OBJECT_ID":"2021-025S","EPOCH":"2025-10-03T06:54:36.756288","MEAN_MOTION":13.13468399,"ECCENTRICITY":0.00019132,"INCLINATION":87.9049,"RA_OF_ASC_NODE":11.2577,"ARG_OF_PERICENTER":94.8116,"MEAN_ANOMALY":265.3231,"EPHEMERIS_TYPE":0,"CLASSIFICATION_TYPE":"U","NORAD_CAT_ID":48058,"ELEMENT_SET_NO":999,"REV_AT_EPOCH":21976,"BSTAR":-0.0006869265,"MEAN_MOTION_DOT":-2.38e-6,"MEAN_MOTION_DDOT":0},{"OBJECT_NAME":"ONEWEB-0148","OBJECT_ID":"2021-025T","EPOCH":"2025-10-03T06:00:59.821632","MEAN_MOTION":13.13470335,"ECCENTRICITY":0.000235,"INCLINATION":87.9045,"RA_OF_ASC_NODE":11.2895,"ARG_OF_PERICENTER":89.8573,"MEAN_ANOMALY":270.2825,"EPHEMERIS_TYPE":0,"CLASSIFICATION_TYPE":"U","NORAD_CAT_ID":48059,"ELEMENT_SET_NO":999,"REV_AT_EPOCH":21988,"BSTAR":0.00096968014,"MEAN_MOTION_DOT":3.67e-6,"MEAN_MOTION_DDOT":0},{"OBJECT_NAME":"ONEWEB-0160","OBJECT_ID":"2021-025U","EPOCH":"2025-10-03T06:25:22.094112","MEAN_MOTION":13.13468967,"ECCENTRICITY":0.00010593,"INCLINATION":87.9048,"RA_OF_ASC_NODE":11.2834,"ARG_OF_PERICENTER":92.1805,"MEAN_ANOMALY":267.9446,"EPHEMERIS_TYPE":0,"CLASSIFICATION_TYPE":"U","NORAD_CAT_ID":48060,"ELEMENT_SET_NO":999,"REV_AT_EPOCH":21983,"BSTAR":0.0007513722,"MEAN_MOTION_DOT":2.87e-6,"MEAN_MOTION_DDOT":0},{"OBJECT_NAME":"ONEWEB-0163","OBJECT_ID":"2021-025V","EPOCH":"2025-10-03T06:03:25.883424","MEAN_MOTION":13.1346971,"ECCENTRICITY":0.00021748,"INCLINATION":87.9049,"RA_OF_ASC_NODE":11.2677,"ARG_OF_PERICENTER":104.4394,"MEAN_ANOMALY":255.6977,"EPHEMERIS_TYPE":0,"CLASSIFICATION_TYPE":"U","NORAD_CAT_ID":48061,"ELEMENT_SET_NO":999,"REV_AT_EPOCH":21995,"BSTAR":0.0011066857,"MEAN_MOTION_DOT":4.17e-6,"MEAN_MOTION_DDOT":0},{"OBJECT_NAME":"ONEWEB-0159","OBJECT_ID":"2021-025W","EPOCH":"2025-10-03T05:51:15.416352","MEAN_MOTION":13.13474187,"ECCENTRICITY":0.00020497,"INCLINATION":87.9047,"RA_OF_ASC_NODE":11.2521,"ARG_OF_PERICENTER":100.4675,"MEAN_ANOMALY":259.6685,"EPHEMERIS_TYPE":0,"CLASSIFICATION_TYPE":"U","NORAD_CAT_ID":48062,"ELEMENT_SET_NO":999,"REV_AT_EPOCH":21987,"BSTAR":-0.0017943192,"MEAN_MOTION_DOT":-6.43e-6,"MEAN_MOTION_DDOT":0},{"OBJECT_NAME":"ONEWEB-0164","OBJECT_ID":"2021-025X","EPOCH":"2025-10-03T07:14:07.365696","MEAN_MOTION":13.13469281,"ECCENTRICITY":0.00017452,"INCLINATION":87.9046,"RA_OF_ASC_NODE":11.2489,"ARG_OF_PERICENTER":101.8421,"MEAN_ANOMALY":258.2904,"EPHEMERIS_TYPE":0,"CLASSIFICATION_TYPE":"U","NORAD_CAT_ID":48063,"ELEMENT_SET_NO":999,"REV_AT_EPOCH":21986,"BSTAR":-0.00055020472,"MEAN_MOTION_DOT":-1.88e-6,"MEAN_MOTION_DDOT":0},{"OBJECT_NAME":"ONEWEB-0167","OBJECT_ID":"2021-025Y","EPOCH":"2025-10-03T06:04:39.608544","MEAN_MOTION":13.13470253,"ECCENTRICITY":0.00021837,"INCLINATION":87.9042,"RA_OF_ASC_NODE":11.2916,"ARG_OF_PERICENTER":121.141,"MEAN_ANOMALY":238.9934,"EPHEMERIS_TYPE":0,"CLASSIFICATION_TYPE":"U","NORAD_CAT_ID":48064,"ELEMENT_SET_NO":999,"REV_AT_EPOCH":21984,"BSTAR":0.00094564414,"MEAN_MOTION_DOT":3.58e-6,"MEAN_MOTION_DDOT":0},{"OBJECT_NAME":"ONEWEB-0166","OBJECT_ID":"2021-025Z","EPOCH":"2025-10-03T06:37:34.229568","MEAN_MOTION":13.13470744,"ECCENTRICITY":0.00019761,"INCLINATION":87.9052,"RA_OF_ASC_NODE":11.2382,"ARG_OF_PERICENTER":97.1359,"MEAN_ANOMALY":262.9995,"EPHEMERIS_TYPE":0,"CLASSIFICATION_TYPE":"U","NORAD_CAT_ID":48065,"ELEMENT_SET_NO":999,"REV_AT_EPOCH":21992,"BSTAR":6.0196164e-5,"MEAN_MOTION_DOT":3.5e-7,"MEAN_MOTION_DDOT":0}]
